[{"OBJECT_NAME":"OSCAR 7 (AO-7)","OBJECT_ID":"1974-089B","EPOCH":"2026-03-29T00:38:26.462688","MEAN_MOTION":12.53696745,"ECCENTRICITY":0.0011864,"INCLINATION":101.9957,"RA_OF_ASC_NODE":100.425,"ARG_OF_PERICENTER":284.4165,"MEAN_ANOMALY":140.2194,"EPHEMERIS_TYPE":0,"CLASSIFICATION_TYPE":"U","NORAD_CAT_ID":7530,"ELEMENT_SET_NO":999,"REV_AT_EPOCH":35047,"BSTAR":0.00015216,"MEAN_MOTION_DOT":-2.2e-7,"MEAN_MOTION_DDOT":0},{"OBJECT_NAME":"PHASE 3B (AO-10)","OBJECT_ID":"1983-058B","EPOCH":"2026-03-25T08:37:11.679744","MEAN_MOTION":2.05874335,"ECCENTRICITY":0.60409983,"INCLINATION":25.9114,"RA_OF_ASC_NODE":233.602,"ARG_OF_PERICENTER":92.4738,"MEAN_ANOMALY":333.4977,"EPHEMERIS_TYPE":0,"CLASSIFICATION_TYPE":"U","NORAD_CAT_ID":14129,"ELEMENT_SET_NO":999,"REV_AT_EPOCH":29376,"BSTAR":0,"MEAN_MOTION_DOT":-3.51e-6,"MEAN_MOTION_DDOT":0},{"OBJECT_NAME":"UOSAT 2 (UO-11)","OBJECT_ID":"1984-021B","EPOCH":"2026-03-29T03:24:01.106208","MEAN_MOTION":14.9057253,"ECCENTRICITY":0.0009196,"INCLINATION":97.798,"RA_OF_ASC_NODE":54.6593,"ARG_OF_PERICENTER":88.8282,"MEAN_ANOMALY":271.3989,"EPHEMERIS_TYPE":0,"CLASSIFICATION_TYPE":"U","NORAD_CAT_ID":14781,"ELEMENT_SET_NO":999,"REV_AT_EPOCH":24520,"BSTAR":0.00018006,"MEAN_MOTION_DOT":1.706e-5,"MEAN_MOTION_DDOT":0},{"OBJECT_NAME":"LUSAT (LO-19)","OBJECT_ID":"1990-005G","EPOCH":"2026-03-29T00:24:38.171808","MEAN_MOTION":14.34095944,"ECCENTRICITY":0.0012675,"INCLINATION":98.8919,"RA_OF_ASC_NODE":107.5906,"ARG_OF_PERICENTER":82.3784,"MEAN_ANOMALY":277.8839,"EPHEMERIS_TYPE":0,"CLASSIFICATION_TYPE":"U","NORAD_CAT_ID":20442,"ELEMENT_SET_NO":999,"REV_AT_EPOCH":89090,"BSTAR":7.8997e-5,"MEAN_MOTION_DOT":1.74e-6,"MEAN_MOTION_DDOT":0},{"OBJECT_NAME":"EYESAT A (AO-27)","OBJECT_ID":"1993-061C","EPOCH":"2026-03-29T03:30:30.854016","MEAN_MOTION":14.30919393,"ECCENTRICITY":0.000789,"INCLINATION":98.6944,"RA_OF_ASC_NODE":155.5673,"ARG_OF_PERICENTER":342.8178,"MEAN_ANOMALY":17.2736,"EPHEMERIS_TYPE":0,"CLASSIFICATION_TYPE":"U","NORAD_CAT_ID":22825,"ELEMENT_SET_NO":999,"REV_AT_EPOCH":69555,"BSTAR":6.2625e-5,"MEAN_MOTION_DOT":1.2e-6,"MEAN_MOTION_DDOT":0},{"OBJECT_NAME":"ITAMSAT (IO-26)","OBJECT_ID":"1993-061D","EPOCH":"2026-03-29T03:35:07.001376","MEAN_MOTION":14.31344074,"ECCENTRICITY":0.0008114,"INCLINATION":98.6892,"RA_OF_ASC_NODE":155.4799,"ARG_OF_PERICENTER":324.7707,"MEAN_ANOMALY":35.2939,"EPHEMERIS_TYPE":0,"CLASSIFICATION_TYPE":"U","NORAD_CAT_ID":22826,"ELEMENT_SET_NO":999,"REV_AT_EPOCH":69586,"BSTAR":6.815e-5,"MEAN_MOTION_DOT":1.36e-6,"MEAN_MOTION_DDOT":0},{"OBJECT_NAME":"RADIO ROSTO (RS15)","OBJECT_ID":"1994-085A","EPOCH":"2026-03-29T04:58:15.328704","MEAN_MOTION":11.27583746,"ECCENTRICITY":0.0153406,"INCLINATION":64.8147,"RA_OF_ASC_NODE":72.5638,"ARG_OF_PERICENTER":18.3966,"MEAN_ANOMALY":342.2423,"EPHEMERIS_TYPE":0,"CLASSIFICATION_TYPE":"U","NORAD_CAT_ID":23439,"ELEMENT_SET_NO":999,"REV_AT_EPOCH":28688,"BSTAR":-0.00028115,"MEAN_MOTION_DOT":-5.2e-7,"MEAN_MOTION_DDOT":0},{"OBJECT_NAME":"JAS-2 (FO-29)","OBJECT_ID":"1996-046B","EPOCH":"2026-03-29T03:57:19.392192","MEAN_MOTION":13.53269951,"ECCENTRICITY":0.0349055,"INCLINATION":98.5349,"RA_OF_ASC_NODE":307.9473,"ARG_OF_PERICENTER":304.192,"MEAN_ANOMALY":52.6589,"EPHEMERIS_TYPE":0,"CLASSIFICATION_TYPE":"U","NORAD_CAT_ID":24278,"ELEMENT_SET_NO":999,"REV_AT_EPOCH":46234,"BSTAR":2.1946e-5,"MEAN_MOTION_DOT":-1.7e-7,"MEAN_MOTION_DDOT":0},{"OBJECT_NAME":"TECHSAT 1B (GO-32)","OBJECT_ID":"1998-043D","EPOCH":"2026-03-28T23:41:10.411584","MEAN_MOTION":14.244112,"ECCENTRICITY":0.0002345,"INCLINATION":99.0048,"RA_OF_ASC_NODE":78.7352,"ARG_OF_PERICENTER":88.2224,"MEAN_ANOMALY":271.9223,"EPHEMERIS_TYPE":0,"CLASSIFICATION_TYPE":"U","NORAD_CAT_ID":25397,"ELEMENT_SET_NO":999,"REV_AT_EPOCH":43991,"BSTAR":6.2958e-5,"MEAN_MOTION_DOT":9.9e-7,"MEAN_MOTION_DDOT":0},{"OBJECT_NAME":"ISS (ZARYA)","OBJECT_ID":"1998-067A","EPOCH":"2026-03-29T03:11:03.043104","MEAN_MOTION":15.4862434,"ECCENTRICITY":0.0006215,"INCLINATION":51.6344,"RA_OF_ASC_NODE":336.2407,"ARG_OF_PERICENTER":245.2164,"MEAN_ANOMALY":114.8178,"EPHEMERIS_TYPE":0,"CLASSIFICATION_TYPE":"U","NORAD_CAT_ID":25544,"ELEMENT_SET_NO":999,"REV_AT_EPOCH":55934,"BSTAR":0.00023326,"MEAN_MOTION_DOT":0.0001226,"MEAN_MOTION_DDOT":0},{"OBJECT_NAME":"PCSAT (NO-44)","OBJECT_ID":"2001-043C","EPOCH":"2026-03-29T04:27:02.619936","MEAN_MOTION":14.31921739,"ECCENTRICITY":0.0006893,"INCLINATION":67.0489,"RA_OF_ASC_NODE":91.1885,"ARG_OF_PERICENTER":264.6555,"MEAN_ANOMALY":95.376,"EPHEMERIS_TYPE":0,"CLASSIFICATION_TYPE":"U","NORAD_CAT_ID":26931,"ELEMENT_SET_NO":999,"REV_AT_EPOCH":27899,"BSTAR":0.00010718,"MEAN_MOTION_DOT":2.04e-6,"MEAN_MOTION_DDOT":0},{"OBJECT_NAME":"SAUDISAT 1C (SO-50)","OBJECT_ID":"2002-058C","EPOCH":"2026-03-29T04:13:05.551680","MEAN_MOTION":14.82859188,"ECCENTRICITY":0.0075442,"INCLINATION":64.5539,"RA_OF_ASC_NODE":16.5038,"ARG_OF_PERICENTER":277.0481,"MEAN_ANOMALY":82.2049,"EPHEMERIS_TYPE":0,"CLASSIFICATION_TYPE":"U","NORAD_CAT_ID":27607,"ELEMENT_SET_NO":999,"REV_AT_EPOCH":25259,"BSTAR":0.00023847,"MEAN_MOTION_DOT":1.879e-5,"MEAN_MOTION_DDOT":0},{"OBJECT_NAME":"CUTE-1 (CO-55)","OBJECT_ID":"2003-031E","EPOCH":"2026-03-28T17:48:57.609216","MEAN_MOTION":14.24281445,"ECCENTRICITY":0.00106253,"INCLINATION":98.6773,"RA_OF_ASC_NODE":97.3052,"ARG_OF_PERICENTER":62.9133,"MEAN_ANOMALY":297.3129,"EPHEMERIS_TYPE":0,"CLASSIFICATION_TYPE":"U","NORAD_CAT_ID":27844,"ELEMENT_SET_NO":999,"REV_AT_EPOCH":18022,"BSTAR":0.00017738568,"MEAN_MOTION_DOT":3.66e-6,"MEAN_MOTION_DDOT":0},{"OBJECT_NAME":"CUBESAT XI-IV (CO-57)","OBJECT_ID":"2003-031J","EPOCH":"2026-03-28T13:12:05.572800","MEAN_MOTION":14.23574119,"ECCENTRICITY":0.0010614,"INCLINATION":98.6807,"RA_OF_ASC_NODE":96.8929,"ARG_OF_PERICENTER":79.7322,"MEAN_ANOMALY":280.5053,"EPHEMERIS_TYPE":0,"CLASSIFICATION_TYPE":"U","NORAD_CAT_ID":27848,"ELEMENT_SET_NO":999,"REV_AT_EPOCH":17990,"BSTAR":0.00015152,"MEAN_MOTION_DOT":3.01e-6,"MEAN_MOTION_DDOT":0},{"OBJECT_NAME":"MOZHAETS 4 (RS22)","OBJECT_ID":"2003-042A","EPOCH":"2026-03-29T05:13:22.787904","MEAN_MOTION":14.73305963,"ECCENTRICITY":0.0011679,"INCLINATION":98.3459,"RA_OF_ASC_NODE":270.3242,"ARG_OF_PERICENTER":156.769,"MEAN_ANOMALY":290.0764,"EPHEMERIS_TYPE":0,"CLASSIFICATION_TYPE":"U","NORAD_CAT_ID":27939,"ELEMENT_SET_NO":999,"REV_AT_EPOCH":20377,"BSTAR":0.00020519,"MEAN_MOTION_DOT":1.275e-5,"MEAN_MOTION_DDOT":0},{"OBJECT_NAME":"CUBESAT XI-V","OBJECT_ID":"2005-043F","EPOCH":"2026-03-28T16:14:01.785984","MEAN_MOTION":14.72395539,"ECCENTRICITY":0.0015362,"INCLINATION":98.2868,"RA_OF_ASC_NODE":241.6643,"ARG_OF_PERICENTER":101.1756,"MEAN_ANOMALY":259.1179,"EPHEMERIS_TYPE":0,"CLASSIFICATION_TYPE":"U","NORAD_CAT_ID":28895,"ELEMENT_SET_NO":999,"REV_AT_EPOCH":8990,"BSTAR":0.00032469,"MEAN_MOTION_DOT":2.007e-5,"MEAN_MOTION_DDOT":0}]
