OSCAR 7 (AO-7)          
1 07530U 74089B   26088.02669517 -.00000022  00000+0  15216-3 0  9995
2 07530 101.9957 100.4250 0011864 284.4165 140.2194 12.53696745350479
PHASE 3B (AO-10)        
1 14129U 83058B   26084.35916296 -.00000351  00000+0  00000+0 0  9990
2 14129  25.9114 233.6020 6040998  92.4738 333.4977  2.05874335293766
UOSAT 2 (UO-11)         
1 14781U 84021B   26088.14167947  .00001706  00000+0  18006-3 0  9990
2 14781  97.7980  54.6593 0009196  88.8282 271.3989 14.90572530245204
LUSAT (LO-19)           
1 20442U 90005G   26088.01710847  .00000174  00000+0  78997-4 0  9993
2 20442  98.8919 107.5906 0012675  82.3784 277.8839 14.34095944890902
EYESAT A (AO-27)        
1 22825U 93061C   26088.14619044  .00000120  00000+0  62625-4 0  9998
2 22825  98.6944 155.5673 0007890 342.8178  17.2736 14.30919393695558
ITAMSAT (IO-26)         
1 22826U 93061D   26088.14938659  .00000136  00000+0  68150-4 0  9991
2 22826  98.6892 155.4799 0008114 324.7707  35.2939 14.31344074695864
RADIO ROSTO (RS15)      
1 23439U 94085A   26088.20712186 -.00000052  00000+0 -28115-3 0  9996
2 23439  64.8147  72.5638 0153406  18.3966 342.2423 11.27583746286882
JAS-2 (FO-29)           
1 24278U 96046B   26088.16480778 -.00000017  00000+0  21946-4 0  9997
2 24278  98.5349 307.9473 0349055 304.1920  52.6589 13.53269951462349
TECHSAT 1B (GO-32)      
1 25397U 98043D   26087.98692606  .00000099  00000+0  62958-4 0  9990
2 25397  99.0048  78.7352 0002345  88.2224 271.9223 14.24411200439911
ISS (ZARYA)             
1 25544U 98067A   26088.13267411  .00012260  00000+0  23326-3 0  9998
2 25544  51.6344 336.2407 0006215 245.2164 114.8178 15.48624340559341
PCSAT (NO-44)           
1 26931U 01043C   26088.18544699  .00000204  00000+0  10718-3 0  9994
2 26931  67.0489  91.1885 0006893 264.6555  95.3760 14.31921739278993
SAUDISAT 1C (SO-50)     
1 27607U 02058C   26088.17575870  .00001879  00000+0  23847-3 0  9992
2 27607  64.5539  16.5038 0075442 277.0481  82.2049 14.82859188252592
CUTE-1 (CO-55)          
1 27844U 03031E   26087.74233344  .00000366  00000+0  17739-3 0  9999
2 27844  98.6773  97.3052 0010625  62.9133 297.3129 14.24281445180222
CUBESAT XI-IV (CO-57)   
1 27848U 03031J   26087.55006450  .00000301  00000+0  15152-3 0  9994
2 27848  98.6807  96.8929 0010614  79.7322 280.5053 14.23574119179900
MOZHAETS 4 (RS22)       
1 27939U 03042A   26088.21762486  .00001275  00000+0  20519-3 0  9993
2 27939  98.3459 270.3242 0011679 156.7690 290.0764 14.73305963203776
CUBESAT XI-V            
1 28895U 05043F   26087.67640956  .00002007  00000+0  32469-3 0  9995
2 28895  98.2868 241.6643 0015362 101.1756 259.1179 14.72395539 89907
